{"fetched_at":"2026-07-24T07:06:54.165Z","source":"https://celestrak.org/NORAD/elements/gp.php?NAME=STRIX&FORMAT=JSON","constellation":"synspective","records":[{"OBJECT_NAME":"STRIX-1","OBJECT_ID":"2022-113A","EPOCH":"2026-07-23T19:37:16.383072","CLASSIFICATION_TYPE":"U","MEAN_MOTION":15.41322993,"ECCENTRICITY":0.0005555,"INCLINATION":97.4475,"RA_OF_ASC_NODE":267.53,"ARG_OF_PERICENTER":110.5542,"MEAN_ANOMALY":249.6301,"EPHEMERIS_TYPE":0,"NORAD_CAT_ID":53815,"ELEMENT_SET_NO":999,"REV_AT_EPOCH":21308,"BSTAR":0.00066559,"MEAN_MOTION_DOT":0.00027731,"MEAN_MOTION_DDOT":0},{"OBJECT_NAME":"STRIX-3","OBJECT_ID":"2024-047A","EPOCH":"2026-07-23T20:30:28.666944","CLASSIFICATION_TYPE":"U","MEAN_MOTION":15.19920203,"ECCENTRICITY":0.0011117,"INCLINATION":97.6639,"RA_OF_ASC_NODE":181.0893,"ARG_OF_PERICENTER":301.4582,"MEAN_ANOMALY":58.5565,"EPHEMERIS_TYPE":0,"NORAD_CAT_ID":59224,"ELEMENT_SET_NO":999,"REV_AT_EPOCH":13031,"BSTAR":0.00045129,"MEAN_MOTION_DOT":0.00009646,"MEAN_MOTION_DDOT":0},{"OBJECT_NAME":"STRIX-4","OBJECT_ID":"2024-137A","EPOCH":"2026-07-23T20:02:17.321280","CLASSIFICATION_TYPE":"U","MEAN_MOTION":15.33569653,"ECCENTRICITY":0.0017482,"INCLINATION":43.0161,"RA_OF_ASC_NODE":76.3472,"ARG_OF_PERICENTER":190.9961,"MEAN_ANOMALY":169.0513,"EPHEMERIS_TYPE":0,"NORAD_CAT_ID":60352,"ELEMENT_SET_NO":999,"REV_AT_EPOCH":10964,"BSTAR":0.00068508,"MEAN_MOTION_DOT":0.00022601,"MEAN_MOTION_DDOT":0},{"OBJECT_NAME":"STRIX-2","OBJECT_ID":"2024-248A","EPOCH":"2026-07-23T20:57:34.557696","CLASSIFICATION_TYPE":"U","MEAN_MOTION":15.09262777,"ECCENTRICITY":0.0014374,"INCLINATION":97.6303,"RA_OF_ASC_NODE":160.3128,"ARG_OF_PERICENTER":202.7304,"MEAN_ANOMALY":157.3289,"EPHEMERIS_TYPE":0,"NORAD_CAT_ID":62406,"ELEMENT_SET_NO":999,"REV_AT_EPOCH":8712,"BSTAR":0.00039384,"MEAN_MOTION_DOT":0.00006222,"MEAN_MOTION_DDOT":0},{"OBJECT_NAME":"STRIX-5","OBJECT_ID":"2025-229A","EPOCH":"2026-07-23T16:20:20.586048","CLASSIFICATION_TYPE":"U","MEAN_MOTION":15.04640307,"ECCENTRICITY":0.0037975,"INCLINATION":41.9282,"RA_OF_ASC_NODE":84.9998,"ARG_OF_PERICENTER":291.2404,"MEAN_ANOMALY":68.4369,"EPHEMERIS_TYPE":0,"NORAD_CAT_ID":65971,"ELEMENT_SET_NO":999,"REV_AT_EPOCH":4247,"BSTAR":0.00030437,"MEAN_MOTION_DOT":0.00004225,"MEAN_MOTION_DDOT":0},{"OBJECT_NAME":"STRIX-6","OBJECT_ID":"2026-056A","EPOCH":"2026-07-22T05:30:19.721952","CLASSIFICATION_TYPE":"U","MEAN_MOTION":15.00349853,"ECCENTRICITY":0.00166026,"INCLINATION":50.2824,"RA_OF_ASC_NODE":184.121,"ARG_OF_PERICENTER":18.2232,"MEAN_ANOMALY":341.9309,"EPHEMERIS_TYPE":0,"NORAD_CAT_ID":68291,"ELEMENT_SET_NO":999,"REV_AT_EPOCH":1853,"BSTAR":0.00016146071,"MEAN_MOTION_DOT":0.00001787,"MEAN_MOTION_DDOT":0},{"OBJECT_NAME":"STRIX-7","OBJECT_ID":"2026-112A","EPOCH":"2026-07-23T19:55:09.643008","CLASSIFICATION_TYPE":"U","MEAN_MOTION":15.0165767,"ECCENTRICITY":0.0025425,"INCLINATION":44.9086,"RA_OF_ASC_NODE":359.9623,"ARG_OF_PERICENTER":254.2737,"MEAN_ANOMALY":105.533,"EPHEMERIS_TYPE":0,"NORAD_CAT_ID":69177,"ELEMENT_SET_NO":999,"REV_AT_EPOCH":938,"BSTAR":0.00033715,"MEAN_MOTION_DOT":0.00004243,"MEAN_MOTION_DDOT":0},{"OBJECT_NAME":"STRIX-8","OBJECT_ID":"2026-146A","EPOCH":"2026-07-23T17:11:58.333632","CLASSIFICATION_TYPE":"U","MEAN_MOTION":15.04491408,"ECCENTRICITY":0.0006295,"INCLINATION":41.9902,"RA_OF_ASC_NODE":325.8863,"ARG_OF_PERICENTER":86.8038,"MEAN_ANOMALY":273.3509,"EPHEMERIS_TYPE":0,"NORAD_CAT_ID":69701,"ELEMENT_SET_NO":999,"REV_AT_EPOCH":406,"BSTAR":0.00033477,"MEAN_MOTION_DOT":0.0000458,"MEAN_MOTION_DDOT":0}]}
