STRIX-1                 
1 53815U 22113A   26204.81755073  .00027731  00000+0  66559-3 0  9994
2 53815  97.4475 267.5300 0005555 110.5542 249.6301 15.41322993213089
STRIX-3                 
1 59224U 24047A   26204.85449846  .00009646  00000+0  45129-3 0  9999
2 59224  97.6639 181.0893 0011117 301.4582  58.5565 15.19920203130312
STRIX-4                 
1 60352U 24137A   26204.83492270  .00022601  00000+0  68508-3 0  9992
2 60352  43.0161  76.3472 0017482 190.9961 169.0513 15.33569653109640
STRIX-2                 
1 62406U 24248A   26204.87331664  .00006222  00000+0  39384-3 0  9991
2 62406  97.6303 160.3128 0014374 202.7304 157.3289 15.09262777 87125
STRIX-5                 
1 65971U 25229A   26204.68079382  .00004225  00000+0  30437-3 0  9997
2 65971  41.9282  84.9998 0037975 291.2404  68.4369 15.04640307 42479
STRIX-6                 
1 68291U 26056A   26203.22939493  .00001787  00000+0  16146-3 0  9992
2 68291  50.2824 184.1210 0016602  18.2232 341.9309 15.00349853 18533
STRIX-7                 
1 69177U 26112A   26204.82997272  .00004243  00000+0  33715-3 0  9996
2 69177  44.9086 359.9623 0025425 254.2737 105.5330 15.01657670  9383
STRIX-8                 
1 69701U 26146A   26204.71664738  .00004580  00000+0  33477-3 0  9991
2 69701  41.9902 325.8863 0006295  86.8038 273.3509 15.04491408  4065
